FLOCK 4G-36             
1 62675U 25009BU  26068.70726311  .00013573  00000+0  51122-3 0  9993
2 62675  97.4053 151.0513 0003474 324.2456  35.8550 15.27209548 63701
STARLINK-35600          
1 66510U 25263AB  26067.83128933  .00028253  00000+0  10327-2 0  9998
2 66510  43.0033 355.8857 0001377 246.7545 113.3161 15.27568302 18762
